{
  "type": "FeatureCollection",
  "features": [
    {
      "type": "Feature",
      "properties": {
        "norad_id": 26766,
        "name": "INTELSAT 10 (IS-10)",
        "group": "intelsat",
        "lat": -8.575712047940177,
        "lon": -20.792628680014076,
        "alt_km": 36104.589619408755,
        "timestamp": "2025-12-20T09:36:01.299150+00:00",
        "meta_object_name": "INTELSAT 10 (IS-10)",
        "meta_object_id": "2001-019A",
        "meta_epoch": "2025-12-19T15:29:42.245376",
        "meta_mean_motion": 0.99074952,
        "meta_eccentricity": 0.00077634,
        "meta_inclination": 8.645,
        "meta_ra_of_asc_node": 61.0877,
        "meta_arg_of_pericenter": 228.9364,
        "meta_mean_anomaly": 139.953,
        "meta_ephemeris_type": 0,
        "meta_classification_type": "U",
        "meta_norad_cat_id": 26766,
        "meta_element_set_no": 999,
        "meta_rev_at_epoch": 4380,
        "meta_bstar": 0,
        "meta_mean_motion_dot": -1.33e-06,
        "meta_mean_motion_ddot": 0,
        "tle_line1": "1 26766U 01019A   25353.64562784 -.00000133  00000+0  00000+0 0  9994",
        "tle_line2": "2 26766   8.6450  61.0877 0007763 228.9364 139.9530  0.99074952 43808"
      },
      "geometry": {
        "type": "Point",
        "coordinates": [
          -20.792628680014076,
          -8.575712047940177
        ]
      }
    },
    {
      "type": "Feature",
      "properties": {
        "norad_id": 26900,
        "name": "INTELSAT 902 (IS-902)",
        "group": "intelsat",
        "lat": 5.3559401049541675,
        "lon": -176.86200379617483,
        "alt_km": 35783.09248236724,
        "timestamp": "2025-12-20T09:36:01.299175+00:00",
        "meta_object_name": "INTELSAT 902 (IS-902)",
        "meta_object_id": "2001-039A",
        "meta_epoch": "2025-12-15T13:09:02.081664",
        "meta_mean_motion": 1.0027087,
        "meta_eccentricity": 0.00045028,
        "meta_inclination": 5.6536,
        "meta_ra_of_asc_node": 74.0372,
        "meta_arg_of_pericenter": 189.6359,
        "meta_mean_anomaly": 327.9329,
        "meta_ephemeris_type": 0,
        "meta_classification_type": "U",
        "meta_norad_cat_id": 26900,
        "meta_element_set_no": 999,
        "meta_rev_at_epoch": 8885,
        "meta_bstar": 0,
        "meta_mean_motion_dot": -2.65e-06,
        "meta_mean_motion_ddot": 0,
        "tle_line1": "1 26900U 01039A   25349.54794076 -.00000265  00000+0  00000+0 0  9997",
        "tle_line2": "2 26900   5.6536  74.0372 0004502 189.6359 327.9329  1.00270870 88858"
      },
      "geometry": {
        "type": "Point",
        "coordinates": [
          -176.86200379617483,
          5.3559401049541675
        ]
      }
    },
    {
      "type": "Feature",
      "properties": {
        "norad_id": 27380,
        "name": "INTELSAT 904 (IS-904)",
        "group": "intelsat",
        "lat": 4.921458008249052,
        "lon": -158.09911353530498,
        "alt_km": 35788.93618935178,
        "timestamp": "2025-12-20T09:36:01.299191+00:00",
        "meta_object_name": "INTELSAT 904 (IS-904)",
        "meta_object_id": "2002-007A",
        "meta_epoch": "2025-12-19T07:35:21.663744",
        "meta_mean_motion": 1.00271333,
        "meta_eccentricity": 0.0001748,
        "meta_inclination": 6.4701,
        "meta_ra_of_asc_node": 71.3572,
        "meta_arg_of_pericenter": 247.0731,
        "meta_mean_anomaly": 212.076,
        "meta_ephemeris_type": 0,
        "meta_classification_type": "U",
        "meta_norad_cat_id": 27380,
        "meta_element_set_no": 999,
        "meta_rev_at_epoch": 4996,
        "meta_bstar": 0,
        "meta_mean_motion_dot": -2.07e-06,
        "meta_mean_motion_ddot": 0,
        "tle_line1": "1 27380U 02007A   25353.31622296 -.00000207  00000+0  00000+0 0  9996",
        "tle_line2": "2 27380   6.4701  71.3572 0001748 247.0731 212.0760  1.00271333 49965"
      },
      "geometry": {
        "type": "Point",
        "coordinates": [
          -158.09911353530498,
          4.921458008249052
        ]
      }
    },
    {
      "type": "Feature",
      "properties": {
        "norad_id": 27426,
        "name": "DIRECTV 5 (TEMPO 1)",
        "group": "intelsat",
        "lat": 3.1781614408159546,
        "lon": 123.03165367354582,
        "alt_km": 35799.22055198399,
        "timestamp": "2025-12-20T09:36:01.299205+00:00",
        "meta_object_name": "DIRECTV 5 (TEMPO 1)",
        "meta_object_id": "2002-023A",
        "meta_epoch": "2025-12-19T10:22:10.435008",
        "meta_mean_motion": 1.00272782,
        "meta_eccentricity": 0.0003429,
        "meta_inclination": 4.4182,
        "meta_ra_of_asc_node": 77.5755,
        "meta_arg_of_pericenter": 208.1264,
        "meta_mean_anomaly": 208.0122,
        "meta_ephemeris_type": 0,
        "meta_classification_type": "U",
        "meta_norad_cat_id": 27426,
        "meta_element_set_no": 999,
        "meta_rev_at_epoch": 8632,
        "meta_bstar": 0,
        "meta_mean_motion_dot": -3.6e-07,
        "meta_mean_motion_ddot": 0,
        "tle_line1": "1 27426U 02023A   25353.43206522 -.00000036  00000+0  00000+0 0  9998",
        "tle_line2": "2 27426   4.4182  77.5755 0003429 208.1264 208.0122  1.00272782 86322"
      },
      "geometry": {
        "type": "Point",
        "coordinates": [
          123.03165367354582,
          3.1781614408159546
        ]
      }
    },
    {
      "type": "Feature",
      "properties": {
        "norad_id": 27438,
        "name": "INTELSAT 905 (IS-905)",
        "group": "intelsat",
        "lat": 2.5914421519901967,
        "lon": 95.89528240645686,
        "alt_km": 35796.70819868511,
        "timestamp": "2025-12-20T09:36:01.299217+00:00",
        "meta_object_name": "INTELSAT 905 (IS-905)",
        "meta_object_id": "2002-027A",
        "meta_epoch": "2025-12-19T10:59:37.315392",
        "meta_mean_motion": 1.00272292,
        "meta_eccentricity": 0.0002646,
        "meta_inclination": 6.3015,
        "meta_ra_of_asc_node": 71.9788,
        "meta_arg_of_pericenter": 200.1075,
        "meta_mean_anomaly": 203.9148,
        "meta_ephemeris_type": 0,
        "meta_classification_type": "U",
        "meta_norad_cat_id": 27438,
        "meta_element_set_no": 999,
        "meta_rev_at_epoch": 4956,
        "meta_bstar": 0,
        "meta_mean_motion_dot": 1.13e-06,
        "meta_mean_motion_ddot": 0,
        "tle_line1": "1 27438U 02027A   25353.45807078  .00000113  00000+0  00000+0 0  9995",
        "tle_line2": "2 27438   6.3015  71.9788 0002646 200.1075 203.9148  1.00272292 49560"
      },
      "geometry": {
        "type": "Point",
        "coordinates": [
          95.89528240645686,
          2.5914421519901967
        ]
      }
    },
    {
      "type": "Feature",
      "properties": {
        "norad_id": 27445,
        "name": "GALAXY 3C (G-3C)",
        "group": "intelsat",
        "lat": 2.8002166067440184,
        "lon": 138.32842165665903,
        "alt_km": 35781.21871464884,
        "timestamp": "2025-12-20T09:36:01.299230+00:00",
        "meta_object_name": "GALAXY 3C (G-3C)",
        "meta_object_id": "2002-030A",
        "meta_epoch": "2025-12-19T19:39:37.661760",
        "meta_mean_motion": 1.00271872,
        "meta_eccentricity": 0.00011391,
        "meta_inclination": 3.2806,
        "meta_ra_of_asc_node": 80.4337,
        "meta_arg_of_pericenter": 77.9265,
        "meta_mean_anomaly": 130.349,
        "meta_ephemeris_type": 0,
        "meta_classification_type": "U",
        "meta_norad_cat_id": 27445,
        "meta_element_set_no": 999,
        "meta_rev_at_epoch": 4469,
        "meta_bstar": 0,
        "meta_mean_motion_dot": -1.31e-06,
        "meta_mean_motion_ddot": 0,
        "tle_line1": "1 27445U 02030A   25353.81918590 -.00000131  00000+0  00000+0 0  9990",
        "tle_line2": "2 27445   3.2806  80.4337 0001139  77.9265 130.3490  1.00271872 44699"
      },
      "geometry": {
        "type": "Point",
        "coordinates": [
          138.32842165665903,
          2.8002166067440184
        ]
      }
    },
    {
      "type": "Feature",
      "properties": {
        "norad_id": 27513,
        "name": "INTELSAT 906 (IS-906)",
        "group": "intelsat",
        "lat": -3.619034538534713,
        "lon": -62.72587778555552,
        "alt_km": 35761.78510391715,
        "timestamp": "2025-12-20T09:36:01.299242+00:00",
        "meta_object_name": "INTELSAT 906 (IS-906)",
        "meta_object_id": "2002-041A",
        "meta_epoch": "2025-12-19T20:34:46.617600",
        "meta_mean_motion": 1.00272721,
        "meta_eccentricity": 0.00063182,
        "meta_inclination": 5.3475,
        "meta_ra_of_asc_node": 75.1475,
        "meta_arg_of_pericenter": 198.3862,
        "meta_mean_anomaly": 187.9892,
        "meta_ephemeris_type": 0,
        "meta_classification_type": "U",
        "meta_norad_cat_id": 27513,
        "meta_element_set_no": 999,
        "meta_rev_at_epoch": 8523,
        "meta_bstar": 0,
        "meta_mean_motion_dot": 3.3e-07,
        "meta_mean_motion_ddot": 0,
        "tle_line1": "1 27513U 02041A   25353.85748400  .00000033  00000+0  00000+0 0  9993",
        "tle_line2": "2 27513   5.3475  75.1475 0006318 198.3862 187.9892  1.00272721 85232"
      },
      "geometry": {
        "type": "Point",
        "coordinates": [
          -62.72587778555552,
          -3.619034538534713
        ]
      }
    }
  ]
}